<?xml version="1.0" encoding="UTF-8"?>
<kml xmlns="http://www.opengis.net/kml/2.2">
<Document>
<name>GPS Trajectory</name>
<description>GPS Trajectory</description>
<Style id="GPScolor">
<LineStyle>
<color>7fFF00FF</color>
<width>3</width>
</LineStyle>
<PolyStyle>
<color>7fFF00FF</color>
</PolyStyle>
</Style>
<Placemark>
<styleUrl>#GPScolor</styleUrl>
<LineString>
<extrude>1</extrude>
<tessellate>1</tessellate>
<altitudeMode>absolute</altitudeMode>
<coordinates>
114.376478602333,22.7289475973333,54.5679999999702
114.376486021186,22.7289478020517,54.6013929899782
114.376490922022,22.7289481454262,54.6289737839252
114.376498012358,22.7289487003945,54.6561170313507
114.376504932086,22.7289491873885,54.6977268802002
114.376509785252,22.7289496847177,54.722039103508
114.376516811791,22.728950535502,54.7329958286136
114.376523375783,22.7289513255541,54.7899510543793
114.376529219905,22.7289520849028,54.7820116151124
114.376534723454,22.7289529715839,54.8014796273783
114.376540448877,22.7289539412852,54.7778691444546
114.376545337193,22.7289546331412,54.8083717525005
114.37655061167,22.7289559871185,54.851930603385
114.376555679235,22.7289572123508,54.8816505121067
114.376560676147,22.7289588391812,54.8885627808049
114.376565605452,22.728960791322,54.9191416809335
114.376570311709,22.7289626138863,54.9540323037654
114.376574922383,22.7289650832039,54.9805846419185
114.376579213136,22.7289678617272,55.0119893113151
114.376583619618,22.7289707828025,55.033554428257
114.376587525391,22.7289739921128,55.0735051967204
114.376591441589,22.7289773999,55.1002775263041
</coordinates>
</LineString></Placemark>
</Document></kml>
